GALAXY 16 (G-16)        
1 29236U 06023A   26195.82449098 -.00000135  00000+0  00000+0 0  9998
2 29236   0.0121  96.9841 0002528  29.1770   4.3321  1.00271035 73257
EUTELSAT 33F            
1 29270U 06032A   26195.84996177  .00000146  00000+0  00000+0 0  9994
2 29270   1.7310  81.9334 0003409  28.6995 161.1159  1.00271569 47586
JCSAT-3A                
1 29272U 06033A   26195.76486663 -.00000353  00000+0  00000+0 0  9993
2 29272   0.0140  10.7007 0001798 103.5011 221.7706  1.00270800 48016
KOREASAT 5 (MUGUNGWHA 5)
1 29349U 06034A   26195.93790289 -.00000368  00000+0  00000+0 0  9996
2 29349   1.8547  82.6424 0001828  81.9835 218.8611  1.00269780 41592
DIRECTV 9S              
1 29494U 06043A   26195.82414432 -.00000124  00000+0  00000+0 0  9998
2 29494   2.4899  80.5684 0005004  34.0926  13.5053  1.00270984 51662
OPTUS D1                
1 29495U 06043B   26195.80299755 -.00000195  00000+0  00000+0 0  9994
2 29495   3.1037  79.3150 0003325  31.8809 262.4936  1.00269945 72391
BADR-4                  
1 29526U 06051A   26195.87405775  .00000145  00000+0  00000+0 0  9990
2 29526   2.0741  80.8169 0004734  30.5166 170.4991  1.00271049 51541
WILDBLUE-1              
1 29643U 06054A   26195.60832677 -.00000059  00000+0  00000+0 0  9994
2 29643   2.8716  80.1378 0001271  39.5460 280.5696  1.00271202 54061
SKYNET 5A               
1 30794U 07007B   26195.84150082 -.00000283  00000+0  00000+0 0  9990
2 30794   5.3681  73.4026 0003700  44.7023 212.7326  1.00269496 70973
ANIK F3                 
1 31102U 07009A   26195.74901303 -.00000010  00000+0  00000+0 0  9993
2 31102   1.2667  83.5195 0002426  29.0299 330.9741  1.00270976 46837
ASTRA 1L                
1 31306U 07016A   26195.76807978 -.00000194  00000+0  00000+0 0  9995
2 31306   1.3908  81.3511 0005193  34.3679  68.9055  1.00271164 45267
GALAXY 17 (G-17)        
1 31307U 07016B   26195.82735100 -.00000217  00000+0  00000+0 0  9996
2 31307   3.0393  79.5502 0003538  33.8307  32.1235  1.00271879 70081
INTELSAT 11 (IS-11)     
1 32253U 07044B   26195.77380731 -.00000158  00000+0  00000+0 0  9992
2 32253   3.6351  78.3340 0004174 100.6769  36.6369  0.99052090 68725
WGS F1 (USA 195)        
1 32258U 07046A   26196.23206161 -.00000277  00000+0  00000+0 0  9997
2 32258   0.0161  64.0151 0000345 181.6024  88.5000  1.00268418 52616
SKYNET 5B               
1 32294U 07056B   26195.84224003  .00000128  00000+0  00000+0 0  9993
2 32294   5.3198  73.1724 0003736  42.8981 144.9373  1.00274512 68471
ASTRA 4A                
1 32299U 07057A   26195.77389398  .00000024  00000+0  00000+0 0  9995
2 32299   0.0419 284.7680 0002281 194.8210  96.4293  1.00271150 51921
HORIZONS-2              
1 32388U 07063B   26195.94002681 -.00000264  00000+0  00000+0 0  9994
2 32388   2.6715  80.2840 0003542  20.1672  96.9363  1.00269289 68097
THURAYA-3               
1 32404U 08001A   26195.93566775 -.00000002  00000+0  00000+0 0  9994
2 32404   6.0353  35.8212 0002116  77.6020 219.8960  1.00271748 67766
THOR 5                  
1 32487U 08006A   26195.77276730 -.00000018  00000+0  00000+0 0  9998
2 32487   0.0449 237.9442 0002321 245.1186  86.9990  1.00271230 67593
AMC-14                  
1 32708U 08011A   26195.50348822 -.00000186  00000+0  00000+0 0  9999
2 32708  24.0416  20.1905 0039659   8.3893 163.4321  1.00420419 68442
DIRECTV 11              
1 32729U 08013A   26195.53943366 -.00000133  00000+0  00000+0 0  9993
2 32729   0.0105 271.2272 0000085 291.1536 185.0288  1.00272107 45869
ICO G1                  
1 32763U 08016A   26194.51503031 -.00000179  00000+0  00000+0 0  9992
2 32763   5.5301  36.0556 0002413  63.7375 284.1531  1.00269278 66802
VINASAT-1               
1 32767U 08018A   26194.51588825 -.00000332  00000+0  00000+0 0  9993
2 32767   0.0324 296.3012 0001404 196.6072 116.1408  1.00270032 66850
STAR ONE C2             
1 32768U 08018B   26195.54619368 -.00000285  00000+0  00000+0 0  9992
2 32768   1.3081  82.2038 0002708  47.9472 293.8797  1.00271020 66925
AMOS-3                  
1 32794U 08022A   26195.99704866 -.00000003  00000+0  00000+0 0  9991
2 32794   0.5249  85.8061 0003009  84.7131 181.3678  1.00488138 82615
GALAXY 18 (G-18)        
1 32951U 08024A   26195.94503759  .00000016  00000+0  00000+0 0  9994
2 32951   0.0165  51.8597 0002848  75.4151  22.7300  1.00271369 46131
ZHONGXING-9             
1 33051U 08028A   26195.82073649 -.00000257  00000+0  00000+0 0  9995
2 33051   0.8365  84.9617 0003241  26.1121 209.4267  1.00269425 66319
SKYNET 5C               
1 33055U 08030A   26195.41295913 -.00000150  00000+0  00000+0 0  9999
2 33055   3.8563  76.7161 0004062  45.6219 300.7994  1.00272279 66228
TURKSAT 3A              
1 33056U 08030B   26195.87405775  .00000138  00000+0  00000+0 0  9994
2 33056   0.0341  73.3666 0004890  21.4128 194.5831  1.00270076 52637
ECHOSTAR 11             
1 33207U 08035A   26195.60858678 -.00000066  00000+0  00000+0 0  9993
2 33207   1.0740  83.8619 0002185  18.9939 298.8963  1.00270730 51482
SUPERBIRD-C2            
1 33274U 08038A   26195.79987752 -.00000317  00000+0  00000+0 0  9995
2 33274   2.4301  80.9176 0006120  37.8786 237.8065  1.00272563106004
INMARSAT 4-F3           
1 33278U 08039A   26195.68219253 -.00000150  00000+0  00000+0 0  9997
2 33278   4.3157  31.6904 0002642  84.8742 323.5694  1.00272427 46822
NIMIQ 4                 
1 33373U 08044A   26195.82778433  .00000000  00000+0  00000+0 0  9998
2 33373   0.0426  73.3796 0001912  44.2871  31.0535  1.00267784 65268
GALAXY 19 (G-19)        
1 33376U 08045A   26195.82492432 -.00000148  00000+0  00000+0 0  9998
2 33376   0.0585 248.4919 0002324 238.0587   6.1091  1.00272717 65187
ASTRA 1M                
1 33436U 08057A   26195.83787582  .00000111  00000+0  00000+0 0  9991
2 33436   0.3654  82.7624 0004424  41.2075 129.7368  1.00269297 46014
EUTELSAT HOTBIRD 13C    
1 33459U 08065A   26195.76296642 -.00000293  00000+0  00000+0 0  9991
2 33459   3.0190  78.8637 0003350  36.7469  41.3675  1.00270848 47629
EXPRESS-AM44            
1 33595U 09007A   26195.98459671 -.00000101  00000+0  00000+0 0  9994
2 33595   3.5317  78.0496 0003649  30.0537 168.1633  1.00271040 52561
NSS-9                   
1 33749U 09008A   26195.73791964  .00000062  00000+0  00000+0 0  9998
2 33749   1.3308  82.3825 0001848  20.8410 278.0795  1.00271757 63790
TELSTAR 11N             
1 34111U 09009A   26195.76547977 -.00000259  00000+0  00000+0 0  9998
2 34111   0.0394 259.7018 0002293 210.1451  60.7721  1.00269088 46524
WGS F2 (USA 204)        
1 34713U 09017A   26195.86919631  .00000060  00000+0  00000+0 0  9995
2 34713   0.0174  35.5972 0000253 215.9041  51.6180  1.00270568 45891
SES-7 (PROTOSTAR 2)     
1 34941U 09027A   26195.29528286 -.00000351  00000+0  00000+0 0  9992
2 34941   0.0298  64.9521 0000555 168.5938 273.1405  1.00268610 62907
MEASAT-3A               
1 35362U 09032A   26195.09162029 -.00000117  00000+0  00000+0 0  9993
2 35362   0.0359 317.7686 0002568 143.9350  23.2173  1.00269864  8307
GOES 14                 
1 35491U 09033A   26195.79771084 -.00000367  00000+0  00000+0 0  9998
2 35491   1.7587  82.6967 0001899  40.3899 222.0628  1.00098247  6863
FM-5                    
1 35493U 09034A   26194.90035760 -.00000205  00000+0  00000+0 0  9998
2 35493   0.0457 259.5714 0000757  86.9227 183.2440  1.00271245 46912
TERRESTAR-1             
1 35496U 09035A   26194.52058797 -.00000064  00000+0  00000+0 0  9998
2 35496   5.1989  48.7738 0002618  55.2029 263.8324  1.00270674 62393
ASIASAT 5               
1 35696U 09042A   26195.82654434  .00000000  00000+0  00000+0 0  9991
2 35696   0.0270  72.5676 0001485  34.5725 223.6658  1.00267100 61980
JCSAT-12 (JCSAT-RA)     
1 35755U 09044A   26195.79909752 -.00000336  00000+0  00000+0 0  9994
2 35755   0.0574 265.6684 0000769 290.5856 156.1255  1.00272189 61885
OPTUS D3                
1 35756U 09044B   26193.95034191 -.00000147  00000+0  00000+0 0  9997
2 35756   0.8917 268.2973 0002923 204.5770 316.2131  1.00268614 61823
NIMIQ 5                 
1 35873U 09050A   26195.92438907 -.00000266  00000+0  00000+0 0  9998
2 35873   0.0480 240.8803 0002537 228.2212  83.7521  1.00270847 61621
AMAZONAS 2              
1 35942U 09054A   26195.75863308 -.00000269  00000+0  00000+0 0  9990
2 35942   1.8847  82.6940 0003144  32.4258  18.6025  1.00270015 61463
COMSATBW-1              
1 35943U 09054B   26195.93566775  .00000016  00000+0  00000+0 0  9998
2 35943   0.0634 176.2381 0002638 298.3257 218.0826  1.00269771 61582
NSS-12                  
1 36032U 09058A   26195.86919622  .00000063  00000+0  00000+0 0  9999
2 36032   0.0939 269.4663 0004795 169.3493 223.8043  1.00269089 61197
THOR 6                  
1 36033U 09058B   26195.77276730  .00000000  00000+0  00000+0 0  9997
2 36033   0.0165  75.1886 0001594  40.9723  93.8287  1.00269799 61285
INTELSAT 14 (IS-14)     
1 36097U 09064A   26195.76400644 -.00000282  00000+0  00000+0 0  9999
2 36097   0.0211 305.3122 0002182 177.7556  39.5898  1.00268717 60884
EUTELSAT 36B            
1 36101U 09065A   26195.95411184  .00000103  00000+0  00000+0 0  9999
2 36101   0.5591  81.3250 0005741  33.5786 211.8854  1.00273748 60985
INTELSAT 15 (IS-15)     
1 36106U 09067A   26195.83933828 -.00000193  00000+0  00000+0 0  9997
2 36106   0.0149 327.1032 0002215 152.0148 200.8735  1.00268678 41504
WGS F3 (USA 211)        
1 36108U 09068A   26195.03722888  .00000058  00000+0  00000+0 0  9993
2 36108   0.3001  85.6351 0000590 101.4654 348.2198  1.00270731 46867
DIRECTV 12              
1 36131U 09075A   26195.60997345 -.00000111  00000+0  00000+0 0  9993
2 36131   0.0060 146.6311 0000342  81.1342 181.5619  1.00271908 46821
BEIDOU-2 G1             
1 36287U 10001A   26195.77856752 -.00000291  00000+0  00000+0 0  9999
2 36287   4.3558  60.3041 0001882 286.8650   6.2094  1.00272175 60441
SDO                     
1 36395U 10005A   26195.27947453 -.00000106  00000+0  00000+0 0  9992
2 36395  34.7062  85.9305 0001959  51.0470 153.5206  1.00277077 60336
